ONEWEB-0228             
1 48780U 21045P   24284.55101610  .00000102  00000+0  23701-3 0  9996
2 48780  87.9117  21.5053 0001934 102.9809 257.1538 13.15549176163513
